     2.100          NAVIGATION                              RINEX VERSION / TYPE
fic2rin                                 10/10/2016 00:04:36 PGM / RUN BY / DATE
                                                            END OF HEADER
 7 16 10  9  1 59 44.0  .420979224145D-03 -.306954461848D-11  .000000000000D+00
     .100000000000D+01  .498125000000D+02  .452840291187D-08  .865121499189D+00
     .280700623989D-05  .100376305636D-01  .839307904243D-05  .515363025665D+04
     .718400000000D+04 -.316649675369D-07 -.150457873263D+01  .108033418655D-06
     .964630633766D+00  .218812500000D+03 -.262252633809D+01 -.816784022333D-08
    -.272868508926D-09  .100000000000D+01  .191800000000D+04  .000000000000D+00
     .240000000000D+01  .000000000000D+00 -.111758708954D-07  .100000000000D+01
     .600000000000D+01  .400000000000D+01
 2 16 10  9  2  0  0.0  .542417168617D-03 -.511590769747D-11  .000000000000D+00
     .170000000000D+02 -.468125000000D+02  .465269380337D-08  .199728350134D+01
    -.254809856415D-05  .160033319844D-01  .851973891258D-05  .515365482521D+04
     .720000000000D+04 -.128522515297D-06  .157161471974D+01 -.409781932831D-06
     .943936902669D+00  .205718750000D+03 -.207974808522D+01 -.806747890002D-08
     .221794952936D-09  .100000000000D+01  .191800000000D+04  .000000000000D+00
     .240000000000D+01  .000000000000D+00 -.204890966415D-07  .170000000000D+02
     .600000000000D+01  .400000000000D+01
 4 16 10  9  2  0  0.0  .633532181382D-05  .318323145621D-11  .000000000000D+00
     .540000000000D+02  .155000000000D+02  .460376319379D-08 -.118134916569D+01
     .713393092155D-06  .841199408751D-02  .860542058945D-05  .515359910202D+04
     .720000000000D+04 -.176951289177D-06 -.246200627816D+01 -.689178705215D-07
     .966358698433D+00  .221312500000D+03 -.100432302741D+01 -.812891003030D-08
    -.978612191697D-10  .100000000000D+01  .191800000000D+04  .000000000000D+00
     .485000000000D+01  .630000000000D+02 -.372529029846D-08  .540000000000D+02
     .600000000000D+01  .400000000000D+01
 5 16 10  9  2  0  0.0 -.857873819768D-04  .250111042988D-11  .000000000000D+00
     .200000000000D+01  .562500000000D+01  .499377943953D-08 -.181746320708D+01
     .931322574615D-08  .480623194017D-02  .748410820961D-05  .515360918045D+04
     .720000000000D+04  .353902578354D-07  .264827029500D+01 -.409781932831D-07
     .946727097064D+00  .223875000000D+03  .527049030828D+00 -.821141346690D-08
     .268939773850D-09  .100000000000D+01  .191800000000D+04  .000000000000D+00
     .240000000000D+01  .000000000000D+00 -.107102096081D-07  .200000000000D+01
     .600000000000D+01  .400000000000D+01
11 16 10  9  2  0  0.0 -.666448846459D-03 -.102318153949D-11  .000000000000D+00
     .520000000000D+02 -.766875000000D+02  .591631786696D-08  .964308417282D+00
    -.415183603764D-05  .168188286480D-01  .782497227192D-05  .515368463326D+04
     .720000000000D+04 -.206753611565D-06  .123346052546D+01 -.229105353355D-06
     .897863939157D+00  .200000000000D+03  .158458414098D+01 -.902001857712D-08
     .228580949885D-10  .100000000000D+01  .191800000000D+04  .000000000000D+00
     .240000000000D+01  .000000000000D+00 -.121071934700D-07  .520000000000D+02
     .600000000000D+01  .400000000000D+01
12 16 10  9  2  0  0.0  .389150343835D-03  .227373675443D-12  .000000000000D+00
     .660000000000D+02  .197187500000D+02  .400302388487D-08  .273033086478D+00
     .104121863842D-05  .604608072899D-02  .507384538651D-05  .515364916420D+04
     .720000000000D+04  .130385160446D-07 -.425433721388D+00  .111758708954D-06
     .990278686156D+00  .295906250000D+03  .785898507713D+00 -.802211986778D-08
    -.807176479283D-10  .100000000000D+01  .191800000000D+04  .000000000000D+00
     .240000000000D+01  .000000000000D+00 -.125728547573D-07  .660000000000D+02
     .600000000000D+01  .400000000000D+01
13 16 10  9  2  0  0.0 -.482909381390D-04 -.216004991671D-11  .000000000000D+00
     .620000000000D+02  .179375000000D+02  .445054252582D-08  .186953926664D+01
     .884756445885D-06  .400143023580D-02  .831298530102D-05  .515368687057D+04
     .720000000000D+04  .316649675369D-07 -.246059712524D+01 -.260770320892D-07
     .970837344598D+00  .225656250000D+03  .193520899213D+01 -.789390024120D-08
    -.176435920693D-09  .100000000000D+01  .191800000000D+04  .000000000000D+00
     .240000000000D+01  .000000000000D+00 -.111758708954D-07  .620000000000D+02
     .600000000000D+01  .400000000000D+01
14 16 10  9  2  0  0.0 -.391332432628D-04 -.193267624127D-11  .000000000000D+00
     .280000000000D+02  .209375000000D+02  .460590614019D-08 -.307021649722D+01
     .103749334812D-05  .874312862288D-02  .797584652901D-05  .515359069443D+04
     .720000000000D+04  .167638063431D-06 -.249850814988D+01 -.139698386192D-06
     .963360067471D+00  .225312500000D+03 -.194278061577D+01 -.790068623815D-08
    -.217509060125D-09  .100000000000D+01  .191800000000D+04  .000000000000D+00
     .240000000000D+01  .000000000000D+00 -.931322574615D-08  .280000000000D+02
     .600000000000D+01  .400000000000D+01
15 16 10  9  2  0  0.0 -.330190174282D-03 -.136424205266D-11  .000000000000D+00
     .810000000000D+02  .124375000000D+02  .538879589355D-08  .291650980123D+01
     .651925802231D-06  .857985799666D-02  .775232911110D-05  .515368103409D+04
     .720000000000D+04 -.115483999252D-06 -.263923286401D+01 -.838190317154D-07
     .930358080966D+00  .215500000000D+03  .510459596863D+00 -.826927301984D-08
    -.136791412197D-09  .100000000000D+01  .191800000000D+04  .000000000000D+00
     .240000000000D+01  .000000000000D+00 -.107102096081D-07  .810000000000D+02
     .600000000000D+01  .400000000000D+01
16 16 10  9  2  0  0.0  .102096237242D-04  .181898940355D-11  .000000000000D+00
     .130000000000D+02  .288750000000D+02  .391980613280D-08 -.168416621957D+01
     .150129199028D-05  .870018731803D-02  .511668622494D-05  .515357722092D+04
     .720000000000D+04  .186264514923D-07 -.406631632605D+00 -.134110450745D-06
     .990783720587D+00  .297593750000D+03  .385140257129D+00 -.789461455667D-08
     .885751180806D-10  .100000000000D+01  .191800000000D+04  .000000000000D+00
     .240000000000D+01  .000000000000D+00 -.107102096081D-07  .130000000000D+02
     .600000000000D+01  .400000000000D+01
17 16 10  9  2  0  0.0 -.201301649213D-03  .682121026330D-12  .000000000000D+00
     .640000000000D+02 -.604375000000D+02  .400123809620D-08 -.263743221520D+01
    -.301934778690D-05  .112634618999D-01  .580959022045D-05  .515375608253D+04
     .720000000000D+04  .894069671631D-07  .612822006862D+00 -.931322574615D-07
     .977784141297D+00  .276406250000D+03 -.192181390854D+01 -.770817821942D-08
     .250010413937D-10  .100000000000D+01  .191800000000D+04  .000000000000D+00
     .240000000000D+01  .000000000000D+00 -.107102096081D-07  .640000000000D+02
     .600000000000D+01  .400000000000D+01
18 16 10  9  2  0  0.0  .565240625292D-03  .352429196937D-11  .000000000000D+00
     .380000000000D+02  .100000000000D+02  .559023285564D-08 -.106420505253D+01
     .912696123123D-06  .172549132258D-01  .756233930588D-05  .515371699715D+04
     .720000000000D+04 -.558793544769D-07  .262427639187D+01  .428408384323D-06
     .925405714131D+00  .217656250000D+03 -.185713231692D+01 -.867750431003D-08
     .226795161215D-09  .100000000000D+01  .191800000000D+04  .000000000000D+00
     .240000000000D+01  .000000000000D+00 -.111758708954D-07  .380000000000D+02
     .600000000000D+01  .400000000000D+01
19 16 10  9  2  0  0.0 -.522006768733D-03  .568434188608D-12  .000000000000D+00
     .930000000000D+02 -.546562500000D+02  .410445668138D-08  .494410847179D+00
    -.269338488579D-05  .104375219671D-01  .639632344246D-05  .515363174057D+04
     .720000000000D+04 -.206753611565D-06  .661229881256D+00  .147148966789D-06
     .974908461285D+00  .266281250000D+03  .875252742316D+00 -.803819196582D-08
    -.728601777760D-10  .100000000000D+01  .191800000000D+04  .000000000000D+00
     .240000000000D+01  .000000000000D+00 -.149011611938D-07  .930000000000D+02
     .600000000000D+01  .400000000000D+01
20 16 10  9  2  0  0.0  .439827796072D-03  .193267624127D-11  .000000000000D+00
     .620000000000D+02  .515625000000D+01  .545022702383D-08  .278290621389D+01
     .121071934700D-06  .470162206329D-02  .753067433834D-05  .515359010506D+04
     .720000000000D+04  .447034835815D-07  .257266224870D+01 -.242143869400D-07
     .926679127265D+00  .216875000000D+03  .145828354894D+01 -.838034907518D-08
     .212866009581D-09  .100000000000D+01  .191800000000D+04  .000000000000D+00
     .240000000000D+01  .000000000000D+00 -.838190317154D-08  .620000000000D+02
     .600000000000D+01  .400000000000D+01
21 16 10  9  2  0  0.0 -.532653182745D-03 -.227373675443D-12  .000000000000D+00
     .700000000000D+02 -.362812500000D+02  .501806616545D-08 -.956726231373D-01
    -.183656811714D-05  .233409659704D-01  .931695103645D-05  .515381441498D+04
     .720000000000D+04 -.411644577980D-06  .158262734907D+01  .257045030594D-06
     .937204774569D+00  .193218750000D+03 -.175291226575D+01 -.865393189957D-08
     .243581574722D-09  .100000000000D+01  .191800000000D+04  .000000000000D+00
     .240000000000D+01  .000000000000D+00 -.977888703346D-08  .700000000000D+02
     .600000000000D+01  .400000000000D+01
22 16 10  9  2  0  0.0  .223790761083D-03 -.103455022327D-10  .000000000000D+00
     .400000000000D+02  .590625000000D+01  .550987236544D-08 -.313339817356D+01
     .745058059692D-07  .739105592947D-02  .768899917603D-05  .515370424080D+04
     .720000000000D+04  .124797224998D-06  .262463745322D+01 -.838190317154D-07
     .923358404167D+00  .211937500000D+03 -.186027529986D+01 -.833677583161D-08
     .248224625266D-09  .100000000000D+01  .191800000000D+04  .000000000000D+00
     .240000000000D+01  .000000000000D+00 -.176951289177D-07  .400000000000D+02
     .600000000000D+01  .400000000000D+01
